NORAD_CAT_ID,OBJECT_NAME,OBJECT_TYPE,EPOCH,MEAN_MOTION,ECCENTRICITY,INCLINATION,RA_OF_ASC_NODE,ARG_OF_PERICENTER,MEAN_ANOMALY,BSTAR,MEAN_MOTION_DOT,MEAN_MOTION_DDOT,TLE_LINE0,TLE_LINE1,TLE_LINE2,SEMIMAJOR_AXIS,PERIOD,APOGEE,PERIGEE,DECAYED
50168.0,STARLINK-3296,PAYLOAD,2024-05-05 22:01:57,15.08828448,8.98e-05,53.2182,29.3979,73.2566,286.8525,0.00032418,4.874e-05,0.0,0 STARLINK-3296,1 50168U 21125N   24126.91802109  .00004874  00000-0  32418-3 0  9990,2 50168  53.2182  29.3979 0000898  73.2566 286.8525 15.08828448135032,6917.916,95.438,540.402,539.159,0.0
50168.0,STARLINK-3296,PAYLOAD,2024-05-06 02:48:05,15.08845365,0.0001143,53.2187,28.5052,63.6151,296.4959,0.00040671,6.192e-05,0.0,0 STARLINK-3296,1 50168U 21125N   24127.11673312  .00006192  00000-0  40671-3 0  9990,2 50168  53.2187  28.5052 0001143  63.6151 296.4959 15.08845365131971,6917.864,95.437,540.52,538.938,0.0
50168.0,STARLINK-3296,PAYLOAD,2024-05-06 10:45:00,15.08856282,0.0001237,53.2193,27.0193,74.6815,285.4314,0.00052283,8.046e-05,0.0,0 STARLINK-3296,1 50168U 21125N   24127.44792706  .00008046  00000-0  52283-3 0  9997,2 50168  53.2193  27.0193 0001237  74.6815 285.4314 15.08856282132021,6917.831,95.437,540.551,538.84,0.0
50168.0,STARLINK-3296,PAYLOAD,2024-05-06 21:52:43,15.08855377,0.0001055,53.2183,24.937,86.914,273.1973,0.00031227,4.687e-05,0.0,0 STARLINK-3296,1 50168U 21125N   24127.91161080  .00004687  00000-0  31227-3 0  9996,2 50168  53.2183  24.9370 0001055  86.9140 273.1973 15.08855377135187,6917.833,95.437,540.428,538.969,0.0
50168.0,STARLINK-3296,PAYLOAD,2024-05-07 02:38:52,15.08860501,0.0001282,53.2174,24.0431,96.5804,263.5334,0.00037582,5.702e-05,0.0,0 STARLINK-3296,1 50168U 21125N   24128.11032583  .00005702  00000-0  37582-3 0  9993,2 50168  53.2174  24.0431 0001282  96.5804 263.5334 15.08860501132122,6917.818,95.436,540.57,538.796,0.0
50168.0,STARLINK-3296,PAYLOAD,2024-05-07 10:35:47,15.0886253,8.91e-05,53.2162,22.5559,86.4849,273.6245,0.00033566,5.062e-05,0.0,0 STARLINK-3296,1 50168U 21125N   24128.44152026  .00005062  00000-0  33566-3 0  9991,2 50168  53.2162  22.5559 0000891  86.4849 273.6245 15.08862530135260,6917.812,95.436,540.293,539.06,0.0
50168.0,STARLINK-3296,PAYLOAD,2024-05-07 20:08:07,15.08831579,0.0001196,53.2207,20.7745,74.9863,285.1262,-0.00037585,-6.263e-05,0.0,0 STARLINK-3296,1 50168U 21125N   24128.83897528 -.00006263  00000-0 -37585-3 0  9998,2 50168  53.2207  20.7745 0001196  74.9863 285.1262 15.08831579132234,6917.906,95.438,540.599,538.944,0.0
50168.0,STARLINK-3296,PAYLOAD,2024-05-07 21:43:30,15.08833824,0.0001356,53.2195,20.4791,64.6135,295.4998,-0.00036675,-6.119e-05,0.0,0 STARLINK-3296,1 50168U 21125N   24128.90521463 -.00006119  00000-0 -36675-3 0  9997,2 50168  53.2195  20.4791 0001356  64.6135 295.4998 15.08833824135333,6917.899,95.438,540.702,538.826,0.0
50168.0,STARLINK-3296,PAYLOAD,2024-05-07 23:18:53,15.0883494,0.0001418,53.2189,20.1816,64.8377,295.2762,-0.00033073,-5.547e-05,0.0,0 STARLINK-3296,1 50168U 21125N   24128.97145441 -.00005547  00000-0 -33073-3 0  9995,2 50168  53.2189  20.1816 0001418  64.8377 295.2762 15.08834940135348,6917.896,95.438,540.742,538.78,0.0
50168.0,STARLINK-3296,PAYLOAD,2024-05-08 21:34:17,15.08840027,9.66e-05,53.219,16.016,97.0488,263.0614,-3.0792e-05,-7.78e-06,0.0,0 STARLINK-3296,1 50168U 21125N   24129.89880976 -.00000778  00000-0 -30792-4 0  9993,2 50168  53.2190  16.0160 0000966  97.0488 263.0614 15.08840027132398,6917.88,95.438,540.414,539.077,0.0
50168.0,STARLINK-3296,PAYLOAD,2024-05-09 02:20:28,15.08804506,9.2e-05,53.2163,15.1212,56.164,303.944,-0.00056175,-9.208e-05,0.0,0 STARLINK-3296,1 50168U 21125N   24130.09755070 -.00009208  00000-0 -56175-3 0  9992,2 50168  53.2163  15.1212 0000920  56.1640 303.9440 15.08804506132429,6917.989,95.44,540.49,539.217,0.0
50168.0,STARLINK-3296,PAYLOAD,2024-05-09 21:25:05,15.08846994,0.0001173,53.2188,11.5556,103.3913,256.721,0.00064993,0.00010073,0.0,0 STARLINK-3296,1 50168U 21125N   24130.89242411  .00010073  00000-0  64993-3 0  9997,2 50168  53.2188  11.5556 0001173 103.3913 256.7210 15.08846994132546,6917.859,95.437,540.535,538.913,0.0
50168.0,STARLINK-3296,PAYLOAD,2024-05-10 02:11:14,15.0885397,9.38e-05,53.2177,10.6629,67.2556,292.8535,0.00084474,0.00013187,0.0,0 STARLINK-3296,1 50168U 21125N   24131.09114380  .00013187  00000-0  84474-3 0  9998,2 50168  53.2177  10.6629 0000938  67.2556 292.8535 15.08853970135663,6917.838,95.437,540.352,539.054,0.0
50168.0,STARLINK-3296,PAYLOAD,2024-05-10 21:15:52,15.08850766,0.0001036,53.2179,7.0921,72.1463,287.9642,0.00046342,7.097e-05,0.0,0 STARLINK-3296,1 50168U 21125N   24131.88602182  .00007097  00000-0  46342-3 0  9992,2 50168  53.2179   7.0921 0001036  72.1463 287.9642 15.08850766132696,6917.847,95.437,540.429,538.996,0.0
50168.0,STARLINK-3296,PAYLOAD,2024-05-11 00:26:38,15.0887055,8.07e-05,53.219,6.5026,99.9348,260.1735,0.0008964,0.00014019,0.0,0 STARLINK-3296,1 50168U 21125N   24132.01850166  .00014019  00000-0  89640-3 0  9995,2 50168  53.2190   6.5026 0000807  99.9348 260.1735 15.08870550132715,6917.787,95.436,540.21,539.094,0.0
50168.0,STARLINK-3296,PAYLOAD,2024-05-11 08:23:31,15.0892781,4.68e-05,53.2182,5.0148,63.7875,296.3166,0.0018835,0.00029888,0.0,0 STARLINK-3296,1 50168U 21125N   24132.34966893  .00029888  00000-0  18835-2 0  9993,2 50168  53.2182   5.0148 0000468  63.7875 296.3166 15.08927810132768,6917.612,95.432,539.801,539.153,0.0
50168.0,STARLINK-3296,PAYLOAD,2024-05-11 21:06:37,15.08813854,0.0002518,53.2175,2.6314,36.0227,324.0934,-0.0016521,-0.00026468,0.0,0 STARLINK-3296,1 50168U 21125N   24132.87959532 -.00026468  00000-0 -16521-2 0  9996,2 50168  53.2175   2.6314 0002518  36.0227 324.0934 15.08813854132843,6917.96,95.439,541.567,538.083,0.0
50168.0,STARLINK-3296,PAYLOAD,2024-05-11 22:42:00,15.08808864,0.0001863,53.2177,2.3341,59.2472,300.8703,-0.0013593,-0.00021838,0.0,0 STARLINK-3296,1 50168U 21125N   24132.94584039 -.00021838  00000-0 -13593-2 0  9992,2 50168  53.2177   2.3341 0001863  59.2472 300.8703 15.08808864135948,6917.976,95.44,541.129,538.552,0.0
50168.0,STARLINK-3296,PAYLOAD,2024-05-12 08:14:21,15.08774326,0.0001576,53.2171,0.5549,77.7777,282.3391,-0.0017437,-0.00027882,0.0,0 STARLINK-3296,1 50168U 21125N   24133.34330190 -.00027882  00000-0 -17437-2 0  9990,2 50168  53.2171   0.5549 0001576  77.7777 282.3391 15.08774326132912,6918.081,95.442,541.036,538.856,0.0
50168.0,STARLINK-3296,PAYLOAD,2024-05-12 20:57:29,15.08737339,0.0001814,53.2177,358.178,81.7064,278.4133,-0.0017758,-0.0002836,0.0,0 STARLINK-3296,1 50168U 21125N   24133.87326243 -.00028360  00000-0 -17758-2 0  9990,2 50168  53.2177 358.1780 0001814  81.7064 278.4133 15.08737339132997,6918.194,95.444,541.314,538.804,0.0
50168.0,STARLINK-3296,PAYLOAD,2024-05-12 22:32:50,15.08820499,0.000118,53.2172,357.878,81.1755,278.9371,-6.0469e-05,-1.249e-05,0.0,0 STARLINK-3296,1 50168U 21125N   24133.93947255 -.00001249  00000-0 -60469-4 0  9995,2 50168  53.2172 357.8780 0001180  81.1755 278.9371 15.08820499136099,6917.94,95.439,540.621,538.989,0.0
50168.0,STARLINK-3296,PAYLOAD,2024-05-13 00:08:13,15.08821497,0.0001399,53.2181,357.5802,80.321,279.794,-1.2654e-05,-4.89e-06,0.0,0 STARLINK-3296,1 50168U 21125N   24134.00571491 -.00000489  00000-0 -12654-4 0  9997,2 50168  53.2181 357.5802 0001399  80.3210 279.7940 15.08821497133019,6917.937,95.439,540.77,538.834,0.0
50168.0,STARLINK-3296,PAYLOAD,2024-05-13 08:05:09,15.0882722,0.0001048,53.2166,356.0947,82.7199,277.3912,0.0002956,4.418e-05,0.0,0 STARLINK-3296,1 50168U 21125N   24134.33691824  .00004418  00000-0  29560-3 0  9993,2 50168  53.2166 356.0947 0001048  82.7199 277.3912 15.08827220136150,6917.919,95.438,540.509,539.059,0.0
50168.0,STARLINK-3296,PAYLOAD,2024-05-13 20:48:15,15.08837479,0.0001103,53.2158,353.7151,85.0342,275.0776,0.00076135,0.00011849,0.0,0 STARLINK-3296,1 50168U 21125N   24134.86684425  .00011849  00000-0  76135-3 0  9996,2 50168  53.2158 353.7151 0001103  85.0342 275.0776 15.08837479136239,6917.888,95.438,540.516,538.99,0.0
50168.0,STARLINK-3296,PAYLOAD,2024-05-14 07:55:57,15.08838695,0.0001372,53.2176,351.6338,77.2317,282.8829,0.0012544,0.00019731,0.0,0 STARLINK-3296,1 50168U 21125N   24135.33052590  .00019731  00000-0  12544-2 0  9992,2 50168  53.2176 351.6338 0001372  77.2317 282.8829 15.08838695133217,6917.884,95.438,540.699,538.8,0.0
50168.0,STARLINK-3296,PAYLOAD,2024-05-14 20:39:02,15.08844395,0.000126,53.2179,349.2561,83.4009,276.7127,0.0011653,0.00018309,0.0,0 STARLINK-3296,1 50168U 21125N   24135.86044690  .00018309  00000-0  11653-2 0  9992,2 50168  53.2179 349.2561 0001260  83.4009 276.7127 15.08844395133299,6917.867,95.437,540.604,538.86,0.0
50168.0,STARLINK-3296,PAYLOAD,2024-05-14 23:49:48,15.08856964,0.0001655,53.219,348.657,103.9496,256.168,0.0010199,0.00015988,0.0,0 STARLINK-3296,1 50168U 21125N   24135.99291726  .00015988  00000-0  10199-2 0  9994,2 50168  53.2190 348.6570 0001655 103.9496 256.1680 15.08856964133315,6917.829,95.436,540.838,538.549,0.0
50168.0,STARLINK-3296,PAYLOAD,2024-05-15 07:46:41,15.08879395,0.00014,53.2168,347.171,101.7035,258.4114,0.00033715,5.088e-05,0.0,0 STARLINK-3296,1 50168U 21125N   24136.32409659  .00005088  00000-0  33715-3 0  9998,2 50168  53.2168 347.1710 0001400 101.7035 258.4114 15.08879395133368,6917.76,95.435,540.593,538.656,0.0
50168.0,STARLINK-3296,PAYLOAD,2024-05-15 20:29:47,15.08851195,0.0001625,53.219,344.7905,117.5529,242.5628,-0.00025961,-4.419e-05,0.0,0 STARLINK-3296,1 50168U 21125N   24136.85402031 -.00004419  00000-0 -25961-3 0  9996,2 50168  53.2190 344.7905 0001625 117.5529 242.5628 15.08851195133445,6917.846,95.437,540.835,538.587,0.0
50168.0,STARLINK-3296,PAYLOAD,2024-05-15 23:40:33,15.08852119,0.0001719,53.219,344.1945,123.7492,236.3664,-0.00021054,-3.638e-05,0.0,0 STARLINK-3296,1 50168U 21125N   24136.98649851 -.00003638  00000-0 -21054-3 0  9994,2 50168  53.2190 344.1945 0001719 123.7492 236.3664 15.08852119136558,6917.843,95.437,540.898,538.519,0.0
